{"fetched_at":"2026-07-11T09:23:57.375Z","source":"https://celestrak.org/NORAD/elements/gp.php?GROUP=oneweb&FORMAT=JSON","constellation":"oneweb","records":[{"OBJECT_NAME":"ONEWEB-0576","OBJECT_ID":"2023-043V","EPOCH":"2026-07-10T02:07:41.429280","CLASSIFICATION_TYPE":"U","MEAN_MOTION":13.16595228,"ECCENTRICITY":0.00019086,"INCLINATION":87.9088,"RA_OF_ASC_NODE":224.2265,"ARG_OF_PERICENTER":91.5076,"MEAN_ANOMALY":268.6273,"EPHEMERIS_TYPE":0,"NORAD_CAT_ID":56065,"ELEMENT_SET_NO":999,"REV_AT_EPOCH":16197,"BSTAR":0.00012142504,"MEAN_MOTION_DOT":5.9e-7,"MEAN_MOTION_DDOT":0},{"OBJECT_NAME":"ONEWEB-0577","OBJECT_ID":"2023-043W","EPOCH":"2026-07-10T07:45:07.808256","CLASSIFICATION_TYPE":"U","MEAN_MOTION":13.16595424,"ECCENTRICITY":0.0001453,"INCLINATION":87.9083,"RA_OF_ASC_NODE":224.1782,"ARG_OF_PERICENTER":78.3005,"MEAN_ANOMALY":281.8289,"EPHEMERIS_TYPE":0,"NORAD_CAT_ID":56066,"ELEMENT_SET_NO":999,"REV_AT_EPOCH":16203,"BSTAR":0.00013326388,"MEAN_MOTION_DOT":6.4e-7,"MEAN_MOTION_DDOT":0},{"OBJECT_NAME":"ONEWEB-0578","OBJECT_ID":"2023-043X","EPOCH":"2026-07-11T02:21:41.304672","CLASSIFICATION_TYPE":"U","MEAN_MOTION":13.21825913,"ECCENTRICITY":0.0002219,"INCLINATION":87.9241,"RA_OF_ASC_NODE":239.2148,"ARG_OF_PERICENTER":87.4919,"MEAN_ANOMALY":272.6469,"EPHEMERIS_TYPE":0,"NORAD_CAT_ID":56067,"ELEMENT_SET_NO":999,"REV_AT_EPOCH":16139,"BSTAR":0.000049185,"MEAN_MOTION_DOT":3.3e-7,"MEAN_MOTION_DDOT":0},{"OBJECT_NAME":"ONEWEB-0579","OBJECT_ID":"2023-043Y","EPOCH":"2026-07-11T02:09:32.740128","CLASSIFICATION_TYPE":"U","MEAN_MOTION":13.21827892,"ECCENTRICITY":0.0002083,"INCLINATION":87.9243,"RA_OF_ASC_NODE":239.2147,"ARG_OF_PERICENTER":104.4142,"MEAN_ANOMALY":255.7223,"EPHEMERIS_TYPE":0,"NORAD_CAT_ID":56068,"ELEMENT_SET_NO":999,"REV_AT_EPOCH":16140,"BSTAR":0.00011268,"MEAN_MOTION_DOT":6e-7,"MEAN_MOTION_DDOT":0},{"OBJECT_NAME":"ONEWEB-0581","OBJECT_ID":"2023-043Z","EPOCH":"2026-07-11T00:19:09.919200","CLASSIFICATION_TYPE":"U","MEAN_MOTION":13.16595682,"ECCENTRICITY":0.0001562,"INCLINATION":87.9078,"RA_OF_ASC_NODE":224.0521,"ARG_OF_PERICENTER":87.0931,"MEAN_ANOMALY":273.0378,"EPHEMERIS_TYPE":0,"NORAD_CAT_ID":56069,"ELEMENT_SET_NO":999,"REV_AT_EPOCH":16209,"BSTAR":0.00022129,"MEAN_MOTION_DOT":9.7e-7,"MEAN_MOTION_DDOT":0},{"OBJECT_NAME":"ONEWEB-0609","OBJECT_ID":"2023-043AA","EPOCH":"2026-07-11T03:20:47.254848","CLASSIFICATION_TYPE":"U","MEAN_MOTION":13.15546932,"ECCENTRICITY":0.0002108,"INCLINATION":87.8986,"RA_OF_ASC_NODE":254.4396,"ARG_OF_PERICENTER":98.5439,"MEAN_ANOMALY":261.593,"EPHEMERIS_TYPE":0,"NORAD_CAT_ID":56070,"ELEMENT_SET_NO":999,"REV_AT_EPOCH":15958,"BSTAR":0.000074105,"MEAN_MOTION_DOT":4.1e-7,"MEAN_MOTION_DDOT":0},{"OBJECT_NAME":"ONEWEB-0613","OBJECT_ID":"2023-043AB","EPOCH":"2026-07-11T03:17:22.303680","CLASSIFICATION_TYPE":"U","MEAN_MOTION":13.1554763,"ECCENTRICITY":0.0002178,"INCLINATION":87.8985,"RA_OF_ASC_NODE":254.4518,"ARG_OF_PERICENTER":103.6165,"MEAN_ANOMALY":256.5208,"EPHEMERIS_TYPE":0,"NORAD_CAT_ID":56071,"ELEMENT_SET_NO":999,"REV_AT_EPOCH":15958,"BSTAR":-0.00019628,"MEAN_MOTION_DOT":-6.1e-7,"MEAN_MOTION_DDOT":0},{"OBJECT_NAME":"ONEWEB-0630","OBJECT_ID":"2023-043AC","EPOCH":"2026-07-10T03:26:43.977984","CLASSIFICATION_TYPE":"U","MEAN_MOTION":13.15549685,"ECCENTRICITY":0.00021435,"INCLINATION":87.8996,"RA_OF_ASC_NODE":254.6242,"ARG_OF_PERICENTER":105.9938,"MEAN_ANOMALY":254.1429,"EPHEMERIS_TYPE":0,"NORAD_CAT_ID":56072,"ELEMENT_SET_NO":999,"REV_AT_EPOCH":15944,"BSTAR":-0.00021444105,"MEAN_MOTION_DOT":-6.8e-7,"MEAN_MOTION_DDOT":0},{"OBJECT_NAME":"ONEWEB-0632","OBJECT_ID":"2023-043AD","EPOCH":"2026-07-11T03:03:41.266080","CLASSIFICATION_TYPE":"U","MEAN_MOTION":13.15547886,"ECCENTRICITY":0.0001922,"INCLINATION":87.8985,"RA_OF_ASC_NODE":254.4437,"ARG_OF_PERICENTER":96.9439,"MEAN_ANOMALY":263.191,"EPHEMERIS_TYPE":0,"NORAD_CAT_ID":56073,"ELEMENT_SET_NO":999,"REV_AT_EPOCH":15957,"BSTAR":-0.0003167,"MEAN_MOTION_DOT":-0.00000106,"MEAN_MOTION_DDOT":0},{"OBJECT_NAME":"ONEWEB-0633","OBJECT_ID":"2023-043AE","EPOCH":"2026-07-11T02:54:33.656832","CLASSIFICATION_TYPE":"U","MEAN_MOTION":13.15548383,"ECCENTRICITY":0.0002382,"INCLINATION":87.8995,"RA_OF_ASC_NODE":254.4224,"ARG_OF_PERICENTER":105.8838,"MEAN_ANOMALY":254.2555,"EPHEMERIS_TYPE":0,"NORAD_CAT_ID":56074,"ELEMENT_SET_NO":999,"REV_AT_EPOCH":15955,"BSTAR":-0.00033017,"MEAN_MOTION_DOT":-0.00000111,"MEAN_MOTION_DDOT":0},{"OBJECT_NAME":"ONEWEB-0634","OBJECT_ID":"2023-043AF","EPOCH":"2026-07-10T13:47:22.053120","CLASSIFICATION_TYPE":"U","MEAN_MOTION":13.15548035,"ECCENTRICITY":0.0002368,"INCLINATION":87.8991,"RA_OF_ASC_NODE":254.5694,"ARG_OF_PERICENTER":93.7845,"MEAN_ANOMALY":266.3556,"EPHEMERIS_TYPE":0,"NORAD_CAT_ID":56075,"ELEMENT_SET_NO":999,"REV_AT_EPOCH":15947,"BSTAR":-0.000069366,"MEAN_MOTION_DOT":-1.3e-7,"MEAN_MOTION_DDOT":0},{"OBJECT_NAME":"ONEWEB-0635","OBJECT_ID":"2023-043AG","EPOCH":"2026-07-11T02:27:10.653696","CLASSIFICATION_TYPE":"U","MEAN_MOTION":13.15547943,"ECCENTRICITY":0.0001811,"INCLINATION":87.8995,"RA_OF_ASC_NODE":254.4292,"ARG_OF_PERICENTER":97.8625,"MEAN_ANOMALY":262.2711,"EPHEMERIS_TYPE":0,"NORAD_CAT_ID":56076,"ELEMENT_SET_NO":999,"REV_AT_EPOCH":15957,"BSTAR":0.00011413,"MEAN_MOTION_DOT":5.6e-7,"MEAN_MOTION_DDOT":0},{"OBJECT_NAME":"ONEWEB-0636","OBJECT_ID":"2023-043AH","EPOCH":"2026-07-11T04:05:17.013120","CLASSIFICATION_TYPE":"U","MEAN_MOTION":13.15547481,"ECCENTRICITY":0.0001865,"INCLINATION":87.8994,"RA_OF_ASC_NODE":254.4214,"ARG_OF_PERICENTER":95.6225,"MEAN_ANOMALY":264.5118,"EPHEMERIS_TYPE":0,"NORAD_CAT_ID":56077,"ELEMENT_SET_NO":999,"REV_AT_EPOCH":15956,"BSTAR":0.00034125,"MEAN_MOTION_DOT":0.00000141,"MEAN_MOTION_DDOT":0},{"OBJECT_NAME":"ONEWEB-0637","OBJECT_ID":"2023-043AJ","EPOCH":"2026-07-10T04:12:22.190976","CLASSIFICATION_TYPE":"U","MEAN_MOTION":13.15548072,"ECCENTRICITY":0.00020209,"INCLINATION":87.8987,"RA_OF_ASC_NODE":254.6347,"ARG_OF_PERICENTER":89.378,"MEAN_ANOMALY":270.7582,"EPHEMERIS_TYPE":0,"NORAD_CAT_ID":56078,"ELEMENT_SET_NO":999,"REV_AT_EPOCH":15945,"BSTAR":0.00026706494,"MEAN_MOTION_DOT":0.00000113,"MEAN_MOTION_DDOT":0},{"OBJECT_NAME":"ONEWEB-0647","OBJECT_ID":"2023-043AK","EPOCH":"2026-07-09T09:50:18.071232","CLASSIFICATION_TYPE":"U","MEAN_MOTION":13.15548507,"ECCENTRICITY":0.00018807,"INCLINATION":87.899,"RA_OF_ASC_NODE":254.8001,"ARG_OF_PERICENTER":99.6489,"MEAN_ANOMALY":260.4854,"EPHEMERIS_TYPE":0,"NORAD_CAT_ID":56079,"ELEMENT_SET_NO":999,"REV_AT_EPOCH":15934,"BSTAR":0.00012768829,"MEAN_MOTION_DOT":6.1e-7,"MEAN_MOTION_DDOT":0},{"OBJECT_NAME":"ONEWEB-0651","OBJECT_ID":"2023-043AL","EPOCH":"2026-07-11T03:42:28.698048","CLASSIFICATION_TYPE":"U","MEAN_MOTION":13.15547952,"ECCENTRICITY":0.0001877,"INCLINATION":87.8986,"RA_OF_ASC_NODE":254.4453,"ARG_OF_PERICENTER":92.9952,"MEAN_ANOMALY":267.1393,"EPHEMERIS_TYPE":0,"NORAD_CAT_ID":56080,"ELEMENT_SET_NO":999,"REV_AT_EPOCH":16077,"BSTAR":0.00056798,"MEAN_MOTION_DOT":0.00000227,"MEAN_MOTION_DDOT":0},{"OBJECT_NAME":"ONEWEB-0718","OBJECT_ID":"2023-043AM","EPOCH":"2026-07-10T03:51:50.257440","CLASSIFICATION_TYPE":"U","MEAN_MOTION":13.15548872,"ECCENTRICITY":0.00025223,"INCLINATION":87.8988,"RA_OF_ASC_NODE":254.6239,"ARG_OF_PERICENTER":95.9889,"MEAN_ANOMALY":264.1529,"EPHEMERIS_TYPE":0,"NORAD_CAT_ID":56081,"ELEMENT_SET_NO":999,"REV_AT_EPOCH":15945,"BSTAR":0.0003855471,"MEAN_MOTION_DOT":0.00000158,"MEAN_MOTION_DDOT":0},{"OBJECT_NAME":"ONEWEB-0561","OBJECT_ID":"2023-068A","EPOCH":"2026-07-10T03:38:49.771680","CLASSIFICATION_TYPE":"U","MEAN_MOTION":13.20769812,"ECCENTRICITY":0.00017388,"INCLINATION":87.9193,"RA_OF_ASC_NODE":269.8669,"ARG_OF_PERICENTER":102.1474,"MEAN_ANOMALY":257.9855,"EPHEMERIS_TYPE":0,"NORAD_CAT_ID":56710,"ELEMENT_SET_NO":999,"REV_AT_EPOCH":15253,"BSTAR":0.000047662483,"MEAN_MOTION_DOT":3.2e-7,"MEAN_MOTION_DDOT":0},{"OBJECT_NAME":"ONEWEB-0668","OBJECT_ID":"2023-068B","EPOCH":"2026-07-11T01:32:07.414944","CLASSIFICATION_TYPE":"U","MEAN_MOTION":13.16594706,"ECCENTRICITY":0.0002409,"INCLINATION":87.9079,"RA_OF_ASC_NODE":224.0301,"ARG_OF_PERICENTER":84.224,"MEAN_ANOMALY":275.9166,"EPHEMERIS_TYPE":0,"NORAD_CAT_ID":56711,"ELEMENT_SET_NO":999,"REV_AT_EPOCH":15492,"BSTAR":0.00016744,"MEAN_MOTION_DOT":7.7e-7,"MEAN_MOTION_DDOT":0},{"OBJECT_NAME":"ONEWEB-0676","OBJECT_ID":"2023-068C","EPOCH":"2026-07-11T01:43:31.874016","CLASSIFICATION_TYPE":"U","MEAN_MOTION":13.1659403,"ECCENTRICITY":0.0001746,"INCLINATION":87.9079,"RA_OF_ASC_NODE":224.0344,"ARG_OF_PERICENTER":92.3176,"MEAN_ANOMALY":267.8155,"EPHEMERIS_TYPE":0,"NORAD_CAT_ID":56712,"ELEMENT_SET_NO":999,"REV_AT_EPOCH":15484,"BSTAR":0.00032556,"MEAN_MOTION_DOT":0.00000137,"MEAN_MOTION_DDOT":0},{"OBJECT_NAME":"ONEWEB-0677","OBJECT_ID":"2023-068D","EPOCH":"2026-07-11T04:49:08.950656","CLASSIFICATION_TYPE":"U","MEAN_MOTION":13.20771501,"ECCENTRICITY":0.0001968,"INCLINATION":87.9188,"RA_OF_ASC_NODE":269.6497,"ARG_OF_PERICENTER":87.8982,"MEAN_ANOMALY":272.2377,"EPHEMERIS_TYPE":0,"NORAD_CAT_ID":56713,"ELEMENT_SET_NO":999,"REV_AT_EPOCH":15297,"BSTAR":-0.00013364,"MEAN_MOTION_DOT":-4.1e-7,"MEAN_MOTION_DDOT":0},{"OBJECT_NAME":"ONEWEB-0678","OBJECT_ID":"2023-068E","EPOCH":"2026-07-11T04:39:31.061664","CLASSIFICATION_TYPE":"U","MEAN_MOTION":13.15547951,"ECCENTRICITY":0.000198,"INCLINATION":87.8997,"RA_OF_ASC_NODE":254.4123,"ARG_OF_PERICENTER":105.9789,"MEAN_ANOMALY":254.156,"EPHEMERIS_TYPE":0,"NORAD_CAT_ID":56714,"ELEMENT_SET_NO":999,"REV_AT_EPOCH":15244,"BSTAR":-0.00014498,"MEAN_MOTION_DOT":-4.2e-7,"MEAN_MOTION_DDOT":0},{"OBJECT_NAME":"ONEWEB-0679","OBJECT_ID":"2023-068F","EPOCH":"2026-07-10T01:01:34.905504","CLASSIFICATION_TYPE":"U","MEAN_MOTION":13.16593822,"ECCENTRICITY":0.00020931,"INCLINATION":87.908,"RA_OF_ASC_NODE":224.2301,"ARG_OF_PERICENTER":78.0334,"MEAN_ANOMALY":282.1031,"EPHEMERIS_TYPE":0,"NORAD_CAT_ID":56715,"ELEMENT_SET_NO":999,"REV_AT_EPOCH":15473,"BSTAR":-0.00016427709,"MEAN_MOTION_DOT":-5e-7,"MEAN_MOTION_DDOT":0}]}
